CCSDS_OMM_VERS = 2.0
CREATION_DATE  = 
ORIGINATOR     = 

OBJECT_NAME    = STARLINK-36170
OBJECT_ID      = 2025-298J
CENTER_NAME    = EARTH
REF_FRAME      = TEME
TIME_SYSTEM    = UTC
MEAN_ELEMENT_THEORY = SGP/SGP4

EPOCH          = 2026-01-11T20:16:44.286528
MEAN_MOTION    = 15.51877177
ECCENTRICITY   = .00050138
INCLINATION    = 70.0015
RA_OF_ASC_NODE = 165.7547
ARG_OF_PERICENTER = 308.2481
MEAN_ANOMALY   = 51.8254

EPHEMERIS_TYPE = 0
CLASSIFICATION_TYPE = U
NORAD_CAT_ID   = 67083
ELEMENT_SET_NO = 999
REV_AT_EPOCH   = 450
BSTAR          = -.46439926E-2
MEAN_MOTION_DOT = -.270212E-2
MEAN_MOTION_DDOT = 0

CCSDS_OMM_VERS = 2.0
CREATION_DATE  = 
ORIGINATOR     = 

OBJECT_NAME    = STARLINK-36166
OBJECT_ID      = 2025-298K
CENTER_NAME    = EARTH
REF_FRAME      = TEME
TIME_SYSTEM    = UTC
MEAN_ELEMENT_THEORY = SGP/SGP4

EPOCH          = 2026-01-12T06:00:02.000160
MEAN_MOTION    = 15.43135495
ECCENTRICITY   = .00035082
INCLINATION    = 69.9994
RA_OF_ASC_NODE = 164.6753
ARG_OF_PERICENTER = 263.7636
MEAN_ANOMALY   = 170.7082

EPHEMERIS_TYPE = 0
CLASSIFICATION_TYPE = U
NORAD_CAT_ID   = 67084
ELEMENT_SET_NO = 999
REV_AT_EPOCH   = 581
BSTAR          = -.16606317E-1
MEAN_MOTION_DOT = -.684986E-2
MEAN_MOTION_DDOT = 0

CCSDS_OMM_VERS = 2.0
CREATION_DATE  = 
ORIGINATOR     = 

OBJECT_NAME    = STARLINK-35794
OBJECT_ID      = 2025-298L
CENTER_NAME    = EARTH
REF_FRAME      = TEME
TIME_SYSTEM    = UTC
MEAN_ELEMENT_THEORY = SGP/SGP4

EPOCH          = 2026-01-11T19:56:37.306176
MEAN_MOTION    = 15.42702514
ECCENTRICITY   = .00037525
INCLINATION    = 70.0007
RA_OF_ASC_NODE = 166.1117
ARG_OF_PERICENTER = 297.9068
MEAN_ANOMALY   = 62.1734

EPHEMERIS_TYPE = 0
CLASSIFICATION_TYPE = U
NORAD_CAT_ID   = 67085
ELEMENT_SET_NO = 999
REV_AT_EPOCH   = 449
BSTAR          = .11653966E-2
MEAN_MOTION_DOT = .51213E-3
MEAN_MOTION_DDOT = 0

CCSDS_OMM_VERS = 2.0
CREATION_DATE  = 
ORIGINATOR     = 

OBJECT_NAME    = STARLINK-35841
OBJECT_ID      = 2025-298M
CENTER_NAME    = EARTH
REF_FRAME      = TEME
TIME_SYSTEM    = UTC
MEAN_ELEMENT_THEORY = SGP/SGP4

EPOCH          = 2026-01-11T09:25:46.364736
MEAN_MOTION    = 15.52059546
ECCENTRICITY   = .0001612
INCLINATION    = 70.0000
RA_OF_ASC_NODE = 166.9856
ARG_OF_PERICENTER = 234.0987
MEAN_ANOMALY   = 126.0050

EPHEMERIS_TYPE = 0
CLASSIFICATION_TYPE = U
NORAD_CAT_ID   = 67086
ELEMENT_SET_NO = 999
REV_AT_EPOCH   = 443
BSTAR          = .78226181E-3
MEAN_MOTION_DOT = .4745E-3
MEAN_MOTION_DDOT = 0

CCSDS_OMM_VERS = 2.0
CREATION_DATE  = 
ORIGINATOR     = 

OBJECT_NAME    = STARLINK-35842
OBJECT_ID      = 2025-298N
CENTER_NAME    = EARTH
REF_FRAME      = TEME
TIME_SYSTEM    = UTC
MEAN_ELEMENT_THEORY = SGP/SGP4

EPOCH          = 2026-01-11T20:59:22.041888
MEAN_MOTION    = 15.42742799
ECCENTRICITY   = .00036129
INCLINATION    = 69.9995
RA_OF_ASC_NODE = 166.2731
ARG_OF_PERICENTER = 272.9783
MEAN_ANOMALY   = 87.0985

EPHEMERIS_TYPE = 0
CLASSIFICATION_TYPE = U
NORAD_CAT_ID   = 67087
ELEMENT_SET_NO = 999
REV_AT_EPOCH   = 449
BSTAR          = .72265283E-3
MEAN_MOTION_DOT = .31662E-3
MEAN_MOTION_DDOT = 0

CCSDS_OMM_VERS = 2.0
CREATION_DATE  = 
ORIGINATOR     = 

OBJECT_NAME    = STARLINK-35882
OBJECT_ID      = 2025-298P
CENTER_NAME    = EARTH
REF_FRAME      = TEME
TIME_SYSTEM    = UTC
MEAN_ELEMENT_THEORY = SGP/SGP4

EPOCH          = 2026-01-12T06:00:02.000160
MEAN_MOTION    = 15.42623428
ECCENTRICITY   = .00033154
INCLINATION    = 70.0000
RA_OF_ASC_NODE = 164.6867
ARG_OF_PERICENTER = 296.5057
MEAN_ANOMALY   = 127.0859

EPHEMERIS_TYPE = 0
CLASSIFICATION_TYPE = U
NORAD_CAT_ID   = 67088
ELEMENT_SET_NO = 999
REV_AT_EPOCH   = 587
BSTAR          = .34263265E-2
MEAN_MOTION_DOT = .15244E-2
MEAN_MOTION_DDOT = 0

CCSDS_OMM_VERS = 2.0
CREATION_DATE  = 
ORIGINATOR     = 

OBJECT_NAME    = STARLINK-35763
OBJECT_ID      = 2025-298Q
CENTER_NAME    = EARTH
REF_FRAME      = TEME
TIME_SYSTEM    = UTC
MEAN_ELEMENT_THEORY = SGP/SGP4

EPOCH          = 2026-01-11T19:36:06.801696
MEAN_MOTION    = 15.42734240
ECCENTRICITY   = .00039257
INCLINATION    = 69.9996
RA_OF_ASC_NODE = 166.0599
ARG_OF_PERICENTER = 274.2069
MEAN_ANOMALY   = 85.8664

EPHEMERIS_TYPE = 0
CLASSIFICATION_TYPE = U
NORAD_CAT_ID   = 67089
ELEMENT_SET_NO = 999
REV_AT_EPOCH   = 449
BSTAR          = .62320663E-3
MEAN_MOTION_DOT = .27262E-3
MEAN_MOTION_DDOT = 0

CCSDS_OMM_VERS = 2.0
CREATION_DATE  = 
ORIGINATOR     = 

OBJECT_NAME    = STARLINK-36060
OBJECT_ID      = 2025-298R
CENTER_NAME    = EARTH
REF_FRAME      = TEME
TIME_SYSTEM    = UTC
MEAN_ELEMENT_THEORY = SGP/SGP4

EPOCH          = 2026-01-12T06:00:02.000160
MEAN_MOTION    = 15.42650408
ECCENTRICITY   = .00036628
INCLINATION    = 69.9995
RA_OF_ASC_NODE = 164.7880
ARG_OF_PERICENTER = 272.0734
MEAN_ANOMALY   = 63.6004

EPHEMERIS_TYPE = 0
CLASSIFICATION_TYPE = U
NORAD_CAT_ID   = 67090
ELEMENT_SET_NO = 999
REV_AT_EPOCH   = 581
BSTAR          = .2418007E-2
MEAN_MOTION_DOT = .107002E-2
MEAN_MOTION_DDOT = 0

CCSDS_OMM_VERS = 2.0
CREATION_DATE  = 
ORIGINATOR     = 

OBJECT_NAME    = STARLINK-36097
OBJECT_ID      = 2025-298S
CENTER_NAME    = EARTH
REF_FRAME      = TEME
TIME_SYSTEM    = UTC
MEAN_ELEMENT_THEORY = SGP/SGP4

EPOCH          = 2026-01-12T00:00:02.999808
MEAN_MOTION    = 15.42695356
ECCENTRICITY   = .00033527
INCLINATION    = 69.9994
RA_OF_ASC_NODE = 165.4877
ARG_OF_PERICENTER = 273.5756
MEAN_ANOMALY   = 92.1424

EPHEMERIS_TYPE = 0
CLASSIFICATION_TYPE = U
NORAD_CAT_ID   = 67091
ELEMENT_SET_NO = 999
REV_AT_EPOCH   = 583
BSTAR          = -.93297747E-4
MEAN_MOTION_DOT = -.423E-4
MEAN_MOTION_DDOT = 0

CCSDS_OMM_VERS = 2.0
CREATION_DATE  = 
ORIGINATOR     = 

OBJECT_NAME    = STARLINK-35792
OBJECT_ID      = 2025-298T
CENTER_NAME    = EARTH
REF_FRAME      = TEME
TIME_SYSTEM    = UTC
MEAN_ELEMENT_THEORY = SGP/SGP4

EPOCH          = 2026-01-11T19:24:11.170368
MEAN_MOTION    = 15.42716700
ECCENTRICITY   = .00045009
INCLINATION    = 70.0002
RA_OF_ASC_NODE = 166.0290
ARG_OF_PERICENTER = 287.8385
MEAN_ANOMALY   = 72.2306

EPHEMERIS_TYPE = 0
CLASSIFICATION_TYPE = U
NORAD_CAT_ID   = 67092
ELEMENT_SET_NO = 999
REV_AT_EPOCH   = 449
BSTAR          = .92392069E-3
MEAN_MOTION_DOT = .40538E-3
MEAN_MOTION_DDOT = 0

CCSDS_OMM_VERS = 2.0
CREATION_DATE  = 
ORIGINATOR     = 

OBJECT_NAME    = STARLINK-35784
OBJECT_ID      = 2025-298U
CENTER_NAME    = EARTH
REF_FRAME      = TEME
TIME_SYSTEM    = UTC
MEAN_ELEMENT_THEORY = SGP/SGP4

EPOCH          = 2026-01-11T19:47:47.390784
MEAN_MOTION    = 15.42733388
ECCENTRICITY   = .00036437
INCLINATION    = 70.0002
RA_OF_ASC_NODE = 166.0882
ARG_OF_PERICENTER = 292.0054
MEAN_ANOMALY   = 68.0740

EPHEMERIS_TYPE = 0
CLASSIFICATION_TYPE = U
NORAD_CAT_ID   = 67093
ELEMENT_SET_NO = 999
REV_AT_EPOCH   = 449
BSTAR          = .80927091E-3
MEAN_MOTION_DOT = .35481E-3
MEAN_MOTION_DDOT = 0

CCSDS_OMM_VERS = 2.0
CREATION_DATE  = 
ORIGINATOR     = 

OBJECT_NAME    = STARLINK-36202
OBJECT_ID      = 2025-298V
CENTER_NAME    = EARTH
REF_FRAME      = TEME
TIME_SYSTEM    = UTC
MEAN_ELEMENT_THEORY = SGP/SGP4

EPOCH          = 2026-01-11T19:41:49.072704
MEAN_MOTION    = 15.42729487
ECCENTRICITY   = .00041414
INCLINATION    = 69.9996
RA_OF_ASC_NODE = 166.0737
ARG_OF_PERICENTER = 282.4979
MEAN_ANOMALY   = 77.5739

EPHEMERIS_TYPE = 0
CLASSIFICATION_TYPE = U
NORAD_CAT_ID   = 67094
ELEMENT_SET_NO = 999
REV_AT_EPOCH   = 449
BSTAR          = .2875532E-3
MEAN_MOTION_DOT = .12473E-3
MEAN_MOTION_DDOT = 0

